<?xml version="1.0" encoding="utf-8"?>
<gpx xmlns="http://www.topografix.com/GPX/1/1" xmlns:gpxx="http://www.garmin.com/xmlschemas/GpxExtensions/v3" xmlns:gpxtpx="http://www.garmin.com/xmlschemas/TrackPointExtension/v1" creator="doogal.co.uk" version="1.1" xmlns:xsi="http://www.w3.org/2001/XMLSchema-instance" xsi:schemaLocation="http://www.topografix.com/GPX/1/1 http://www.topografix.com/GPX/1/1/gpx.xsd http://www.garmin.com/xmlschemas/GpxExtensions/v3 http://www.garmin.com/xmlschemas/GpxExtensionsv3.xsd http://www.garmin.com/xmlschemas/TrackPointExtension/v1 http://www.garmin.com/xmlschemas/TrackPointExtensionv1.xsd">
  <metadata>
    <link href="https://www.doogal.co.uk">
      <text>doogal.co.uk</text>
    </link>
    <time>2026-08-08T13:05:46.3702811Z</time>
  </metadata>
  <trk>
    <name>BePa UP TRAIL</name>
    <trkseg>
      <trkpt lat="44.561695" lon="10.705895">
        <ele>204.9</ele>
      </trkpt>
      <trkpt lat="44.561696" lon="10.705900">
        <ele>204.9</ele>
      </trkpt>
      <trkpt lat="44.561696" lon="10.705900">
        <ele>204.9</ele>
      </trkpt>
      <trkpt lat="44.561700" lon="10.705913">
        <ele>204.9</ele>
      </trkpt>
      <trkpt lat="44.561701" lon="10.705928">
        <ele>205.3</ele>
      </trkpt>
      <trkpt lat="44.561700" lon="10.705935">
        <ele>205.3</ele>
      </trkpt>
      <trkpt lat="44.561699" lon="10.705939">
        <ele>205.3</ele>
      </trkpt>
      <trkpt lat="44.561697" lon="10.705943">
        <ele>205.3</ele>
      </trkpt>
      <trkpt lat="44.561697" lon="10.705947">
        <ele>205.3</ele>
      </trkpt>
      <trkpt lat="44.561695" lon="10.705953">
        <ele>205.3</ele>
      </trkpt>
      <trkpt lat="44.561694" lon="10.705972">
        <ele>205.6</ele>
      </trkpt>
      <trkpt lat="44.561693" lon="10.705988">
        <ele>205.6</ele>
      </trkpt>
      <trkpt lat="44.561691" lon="10.705997">
        <ele>205.6</ele>
      </trkpt>
      <trkpt lat="44.561690" lon="10.706006">
        <ele>206</ele>
      </trkpt>
      <trkpt lat="44.561689" lon="10.706011">
        <ele>206</ele>
      </trkpt>
      <trkpt lat="44.561687" lon="10.706027">
        <ele>206</ele>
      </trkpt>
      <trkpt lat="44.561686" lon="10.706036">
        <ele>206</ele>
      </trkpt>
      <trkpt lat="44.561685" lon="10.706046">
        <ele>206</ele>
      </trkpt>
      <trkpt lat="44.561684" lon="10.706056">
        <ele>206.4</ele>
      </trkpt>
      <trkpt lat="44.561683" lon="10.706066">
        <ele>206.4</ele>
      </trkpt>
      <trkpt lat="44.561677" lon="10.706103">
        <ele>206.8</ele>
      </trkpt>
      <trkpt lat="44.561675" lon="10.706119">
        <ele>206.8</ele>
      </trkpt>
      <trkpt lat="44.561671" lon="10.706140">
        <ele>207.2</ele>
      </trkpt>
      <trkpt lat="44.561669" lon="10.706152">
        <ele>207.1</ele>
      </trkpt>
      <trkpt lat="44.561667" lon="10.706162">
        <ele>207.1</ele>
      </trkpt>
      <trkpt lat="44.561667" lon="10.706166">
        <ele>207.1</ele>
      </trkpt>
      <trkpt lat="44.561668" lon="10.706174">
        <ele>207.1</ele>
      </trkpt>
      <trkpt lat="44.561668" lon="10.706179">
        <ele>207.6</ele>
      </trkpt>
      <trkpt lat="44.561668" lon="10.706185">
        <ele>207.6</ele>
      </trkpt>
      <trkpt lat="44.561666" lon="10.706207">
        <ele>207.6</ele>
      </trkpt>
      <trkpt lat="44.561666" lon="10.706221">
        <ele>208</ele>
      </trkpt>
      <trkpt lat="44.561666" lon="10.706238">
        <ele>208</ele>
      </trkpt>
      <trkpt lat="44.561666" lon="10.706250">
        <ele>208</ele>
      </trkpt>
      <trkpt lat="44.561665" lon="10.706263">
        <ele>208.5</ele>
      </trkpt>
      <trkpt lat="44.561666" lon="10.706273">
        <ele>208.5</ele>
      </trkpt>
      <trkpt lat="44.561666" lon="10.706279">
        <ele>208.5</ele>
      </trkpt>
      <trkpt lat="44.561666" lon="10.706283">
        <ele>208.5</ele>
      </trkpt>
      <trkpt lat="44.561666" lon="10.706287">
        <ele>208.5</ele>
      </trkpt>
      <trkpt lat="44.561663" lon="10.706295">
        <ele>208.5</ele>
      </trkpt>
      <trkpt lat="44.561658" lon="10.706312">
        <ele>209</ele>
      </trkpt>
      <trkpt lat="44.561655" lon="10.706336">
        <ele>209</ele>
      </trkpt>
      <trkpt lat="44.561648" lon="10.706374">
        <ele>209.5</ele>
      </trkpt>
      <trkpt lat="44.561644" lon="10.706392">
        <ele>210</ele>
      </trkpt>
      <trkpt lat="44.561640" lon="10.706409">
        <ele>209.9</ele>
      </trkpt>
      <trkpt lat="44.561637" lon="10.706427">
        <ele>209.9</ele>
      </trkpt>
      <trkpt lat="44.561633" lon="10.706445">
        <ele>210.4</ele>
      </trkpt>
      <trkpt lat="44.561629" lon="10.706462">
        <ele>210.4</ele>
      </trkpt>
      <trkpt lat="44.561626" lon="10.706480">
        <ele>210.8</ele>
      </trkpt>
      <trkpt lat="44.561622" lon="10.706498">
        <ele>210.8</ele>
      </trkpt>
      <trkpt lat="44.561618" lon="10.706515">
        <ele>210.8</ele>
      </trkpt>
      <trkpt lat="44.561615" lon="10.706533">
        <ele>211.3</ele>
      </trkpt>
      <trkpt lat="44.561603" lon="10.706579">
        <ele>211.6</ele>
      </trkpt>
      <trkpt lat="44.561598" lon="10.706595">
        <ele>211.6</ele>
      </trkpt>
      <trkpt lat="44.561582" lon="10.706652">
        <ele>212.6</ele>
      </trkpt>
      <trkpt lat="44.561576" lon="10.706672">
        <ele>212.6</ele>
      </trkpt>
      <trkpt lat="44.561570" lon="10.706693">
        <ele>213.1</ele>
      </trkpt>
      <trkpt lat="44.561559" lon="10.706729">
        <ele>213.1</ele>
      </trkpt>
      <trkpt lat="44.561557" lon="10.706741">
        <ele>213.6</ele>
      </trkpt>
      <trkpt lat="44.561557" lon="10.706754">
        <ele>213.6</ele>
      </trkpt>
      <trkpt lat="44.561551" lon="10.706766">
        <ele>213.6</ele>
      </trkpt>
      <trkpt lat="44.561539" lon="10.706785">
        <ele>214</ele>
      </trkpt>
      <trkpt lat="44.561523" lon="10.706837">
        <ele>214.5</ele>
      </trkpt>
      <trkpt lat="44.561513" lon="10.706871">
        <ele>214.9</ele>
      </trkpt>
      <trkpt lat="44.561503" lon="10.706906">
        <ele>214.9</ele>
      </trkpt>
      <trkpt lat="44.561492" lon="10.706940">
        <ele>215.4</ele>
      </trkpt>
      <trkpt lat="44.561476" lon="10.706994">
        <ele>216.2</ele>
      </trkpt>
      <trkpt lat="44.561466" lon="10.707030">
        <ele>216.2</ele>
      </trkpt>
      <trkpt lat="44.561455" lon="10.707072">
        <ele>216.6</ele>
      </trkpt>
      <trkpt lat="44.561451" lon="10.707085">
        <ele>217.1</ele>
      </trkpt>
      <trkpt lat="44.561438" lon="10.707122">
        <ele>217.6</ele>
      </trkpt>
      <trkpt lat="44.561433" lon="10.707136">
        <ele>217.6</ele>
      </trkpt>
      <trkpt lat="44.561428" lon="10.707154">
        <ele>217.6</ele>
      </trkpt>
      <trkpt lat="44.561426" lon="10.707163">
        <ele>217.5</ele>
      </trkpt>
      <trkpt lat="44.561423" lon="10.707180">
        <ele>218</ele>
      </trkpt>
      <trkpt lat="44.561418" lon="10.707214">
        <ele>218.5</ele>
      </trkpt>
      <trkpt lat="44.561415" lon="10.707243">
        <ele>218.5</ele>
      </trkpt>
      <trkpt lat="44.561415" lon="10.707259">
        <ele>218.9</ele>
      </trkpt>
      <trkpt lat="44.561413" lon="10.707276">
        <ele>218.9</ele>
      </trkpt>
      <trkpt lat="44.561412" lon="10.707290">
        <ele>218.9</ele>
      </trkpt>
      <trkpt lat="44.561408" lon="10.707330">
        <ele>219.4</ele>
      </trkpt>
      <trkpt lat="44.561407" lon="10.707342">
        <ele>219.8</ele>
      </trkpt>
      <trkpt lat="44.561401" lon="10.707371">
        <ele>219.8</ele>
      </trkpt>
      <trkpt lat="44.561399" lon="10.707384">
        <ele>220.1</ele>
      </trkpt>
      <trkpt lat="44.561396" lon="10.707397">
        <ele>220.1</ele>
      </trkpt>
      <trkpt lat="44.561394" lon="10.707438">
        <ele>220.3</ele>
      </trkpt>
      <trkpt lat="44.561395" lon="10.707464">
        <ele>220.3</ele>
      </trkpt>
      <trkpt lat="44.561395" lon="10.707482">
        <ele>220.7</ele>
      </trkpt>
      <trkpt lat="44.561391" lon="10.707501">
        <ele>220.7</ele>
      </trkpt>
      <trkpt lat="44.561388" lon="10.707521">
        <ele>221.1</ele>
      </trkpt>
      <trkpt lat="44.561387" lon="10.707544">
        <ele>221.1</ele>
      </trkpt>
      <trkpt lat="44.561386" lon="10.707570">
        <ele>221.5</ele>
      </trkpt>
      <trkpt lat="44.561387" lon="10.707602">
        <ele>221.9</ele>
      </trkpt>
      <trkpt lat="44.561387" lon="10.707615">
        <ele>221.9</ele>
      </trkpt>
      <trkpt lat="44.561387" lon="10.707628">
        <ele>221.9</ele>
      </trkpt>
      <trkpt lat="44.561390" lon="10.707652">
        <ele>222.4</ele>
      </trkpt>
      <trkpt lat="44.561391" lon="10.707672">
        <ele>222.4</ele>
      </trkpt>
      <trkpt lat="44.561393" lon="10.707715">
        <ele>222.9</ele>
      </trkpt>
      <trkpt lat="44.561395" lon="10.707734">
        <ele>223.3</ele>
      </trkpt>
      <trkpt lat="44.561397" lon="10.707752">
        <ele>223.4</ele>
      </trkpt>
      <trkpt lat="44.561399" lon="10.707770">
        <ele>223.9</ele>
      </trkpt>
      <trkpt lat="44.561411" lon="10.707814">
        <ele>224.4</ele>
      </trkpt>
      <trkpt lat="44.561415" lon="10.707826">
        <ele>224.4</ele>
      </trkpt>
      <trkpt lat="44.561418" lon="10.707838">
        <ele>224.4</ele>
      </trkpt>
      <trkpt lat="44.561422" lon="10.707849">
        <ele>224.4</ele>
      </trkpt>
      <trkpt lat="44.561425" lon="10.707861">
        <ele>224.8</ele>
      </trkpt>
      <trkpt lat="44.561429" lon="10.707873">
        <ele>224.9</ele>
      </trkpt>
      <trkpt lat="44.561434" lon="10.707914">
        <ele>225.3</ele>
      </trkpt>
      <trkpt lat="44.561434" lon="10.707923">
        <ele>225.3</ele>
      </trkpt>
      <trkpt lat="44.561437" lon="10.707939">
        <ele>225.8</ele>
      </trkpt>
      <trkpt lat="44.561447" lon="10.707962">
        <ele>225.8</ele>
      </trkpt>
      <trkpt lat="44.561457" lon="10.708003">
        <ele>226.4</ele>
      </trkpt>
      <trkpt lat="44.561460" lon="10.708017">
        <ele>226.4</ele>
      </trkpt>
      <trkpt lat="44.561461" lon="10.708031">
        <ele>227</ele>
      </trkpt>
      <trkpt lat="44.561467" lon="10.708061">
        <ele>227</ele>
      </trkpt>
      <trkpt lat="44.561472" lon="10.708079">
        <ele>227.6</ele>
      </trkpt>
      <trkpt lat="44.561476" lon="10.708101">
        <ele>227.6</ele>
      </trkpt>
      <trkpt lat="44.561477" lon="10.708113">
        <ele>228.3</ele>
      </trkpt>
      <trkpt lat="44.561479" lon="10.708132">
        <ele>228.3</ele>
      </trkpt>
      <trkpt lat="44.561484" lon="10.708156">
        <ele>228.9</ele>
      </trkpt>
      <trkpt lat="44.561491" lon="10.708185">
        <ele>228.9</ele>
      </trkpt>
      <trkpt lat="44.561497" lon="10.708211">
        <ele>229.5</ele>
      </trkpt>
      <trkpt lat="44.561501" lon="10.708241">
        <ele>230.1</ele>
      </trkpt>
      <trkpt lat="44.561502" lon="10.708256">
        <ele>230.1</ele>
      </trkpt>
      <trkpt lat="44.561503" lon="10.708272">
        <ele>230.1</ele>
      </trkpt>
      <trkpt lat="44.561508" lon="10.708304">
        <ele>230.7</ele>
      </trkpt>
      <trkpt lat="44.561510" lon="10.708322">
        <ele>230.7</ele>
      </trkpt>
      <trkpt lat="44.561512" lon="10.708339">
        <ele>231.3</ele>
      </trkpt>
      <trkpt lat="44.561515" lon="10.708362">
        <ele>231.3</ele>
      </trkpt>
      <trkpt lat="44.561518" lon="10.708382">
        <ele>231.8</ele>
      </trkpt>
      <trkpt lat="44.561522" lon="10.708399">
        <ele>231.8</ele>
      </trkpt>
      <trkpt lat="44.561528" lon="10.708424">
        <ele>232.4</ele>
      </trkpt>
      <trkpt lat="44.561531" lon="10.708437">
        <ele>232.4</ele>
      </trkpt>
      <trkpt lat="44.561533" lon="10.708450">
        <ele>232.4</ele>
      </trkpt>
      <trkpt lat="44.561537" lon="10.708469">
        <ele>233</ele>
      </trkpt>
      <trkpt lat="44.561545" lon="10.708492">
        <ele>233</ele>
      </trkpt>
      <trkpt lat="44.561549" lon="10.708506">
        <ele>233.6</ele>
      </trkpt>
      <trkpt lat="44.561553" lon="10.708521">
        <ele>233.6</ele>
      </trkpt>
      <trkpt lat="44.561556" lon="10.708550">
        <ele>234.2</ele>
      </trkpt>
      <trkpt lat="44.561557" lon="10.708572">
        <ele>234.2</ele>
      </trkpt>
      <trkpt lat="44.561560" lon="10.708587">
        <ele>234.8</ele>
      </trkpt>
      <trkpt lat="44.561571" lon="10.708605">
        <ele>234.8</ele>
      </trkpt>
      <trkpt lat="44.561588" lon="10.708640">
        <ele>235.3</ele>
      </trkpt>
      <trkpt lat="44.561597" lon="10.708658">
        <ele>235.3</ele>
      </trkpt>
      <trkpt lat="44.561606" lon="10.708680">
        <ele>235.9</ele>
      </trkpt>
      <trkpt lat="44.561611" lon="10.708710">
        <ele>236.3</ele>
      </trkpt>
      <trkpt lat="44.561613" lon="10.708721">
        <ele>236.3</ele>
      </trkpt>
      <trkpt lat="44.561616" lon="10.708732">
        <ele>236.3</ele>
      </trkpt>
      <trkpt lat="44.561633" lon="10.708783">
        <ele>236.8</ele>
      </trkpt>
      <trkpt lat="44.561640" lon="10.708819">
        <ele>237.3</ele>
      </trkpt>
      <trkpt lat="44.561643" lon="10.708834">
        <ele>237.1</ele>
      </trkpt>
      <trkpt lat="44.561647" lon="10.708849">
        <ele>237.6</ele>
      </trkpt>
      <trkpt lat="44.561654" lon="10.708885">
        <ele>238.2</ele>
      </trkpt>
      <trkpt lat="44.561656" lon="10.708923">
        <ele>238.2</ele>
      </trkpt>
      <trkpt lat="44.561664" lon="10.708947">
        <ele>238.7</ele>
      </trkpt>
      <trkpt lat="44.561676" lon="10.708966">
        <ele>238.5</ele>
      </trkpt>
      <trkpt lat="44.561687" lon="10.708989">
        <ele>239</ele>
      </trkpt>
      <trkpt lat="44.561692" lon="10.709003">
        <ele>239</ele>
      </trkpt>
      <trkpt lat="44.561696" lon="10.709018">
        <ele>239.5</ele>
      </trkpt>
      <trkpt lat="44.561700" lon="10.709039">
        <ele>239.5</ele>
      </trkpt>
      <trkpt lat="44.561704" lon="10.709067">
        <ele>239.8</ele>
      </trkpt>
      <trkpt lat="44.561706" lon="10.709098">
        <ele>240.3</ele>
      </trkpt>
      <trkpt lat="44.561708" lon="10.709116">
        <ele>240.3</ele>
      </trkpt>
      <trkpt lat="44.561709" lon="10.709134">
        <ele>240.3</ele>
      </trkpt>
      <trkpt lat="44.561709" lon="10.709153">
        <ele>240.7</ele>
      </trkpt>
      <trkpt lat="44.561710" lon="10.709165">
        <ele>240.7</ele>
      </trkpt>
      <trkpt lat="44.561710" lon="10.709175">
        <ele>240.7</ele>
      </trkpt>
      <trkpt lat="44.561715" lon="10.709196">
        <ele>241.2</ele>
      </trkpt>
      <trkpt lat="44.561722" lon="10.709212">
        <ele>241.2</ele>
      </trkpt>
      <trkpt lat="44.561730" lon="10.709233">
        <ele>241.7</ele>
      </trkpt>
      <trkpt lat="44.561733" lon="10.709244">
        <ele>241.5</ele>
      </trkpt>
      <trkpt lat="44.561739" lon="10.709266">
        <ele>241.5</ele>
      </trkpt>
      <trkpt lat="44.561759" lon="10.709303">
        <ele>242.1</ele>
      </trkpt>
      <trkpt lat="44.561766" lon="10.709317">
        <ele>242.5</ele>
      </trkpt>
      <trkpt lat="44.561785" lon="10.709368">
        <ele>243.2</ele>
      </trkpt>
      <trkpt lat="44.561791" lon="10.709388">
        <ele>243.2</ele>
      </trkpt>
      <trkpt lat="44.561795" lon="10.709410">
        <ele>243.8</ele>
      </trkpt>
      <trkpt lat="44.561801" lon="10.709430">
        <ele>243.8</ele>
      </trkpt>
      <trkpt lat="44.561809" lon="10.709451">
        <ele>244.6</ele>
      </trkpt>
      <trkpt lat="44.561816" lon="10.709457">
        <ele>244.6</ele>
      </trkpt>
      <trkpt lat="44.561819" lon="10.709464">
        <ele>244.7</ele>
      </trkpt>
      <trkpt lat="44.561827" lon="10.709481">
        <ele>244.6</ele>
      </trkpt>
      <trkpt lat="44.561843" lon="10.709497">
        <ele>245.5</ele>
      </trkpt>
      <trkpt lat="44.561851" lon="10.709504">
        <ele>245.5</ele>
      </trkpt>
      <trkpt lat="44.561854" lon="10.709509">
        <ele>245.6</ele>
      </trkpt>
      <trkpt lat="44.561857" lon="10.709514">
        <ele>245.6</ele>
      </trkpt>
      <trkpt lat="44.561867" lon="10.709527">
        <ele>246.5</ele>
      </trkpt>
      <trkpt lat="44.561890" lon="10.709564">
        <ele>246.4</ele>
      </trkpt>
      <trkpt lat="44.561896" lon="10.709575">
        <ele>247.3</ele>
      </trkpt>
      <trkpt lat="44.561903" lon="10.709586">
        <ele>247.3</ele>
      </trkpt>
      <trkpt lat="44.561907" lon="10.709592">
        <ele>247.4</ele>
      </trkpt>
      <trkpt lat="44.561920" lon="10.709608">
        <ele>247.4</ele>
      </trkpt>
      <trkpt lat="44.561950" lon="10.709641">
        <ele>248.3</ele>
      </trkpt>
      <trkpt lat="44.561974" lon="10.709670">
        <ele>249.2</ele>
      </trkpt>
      <trkpt lat="44.561981" lon="10.709678">
        <ele>249.3</ele>
      </trkpt>
      <trkpt lat="44.561997" lon="10.709699">
        <ele>250.1</ele>
      </trkpt>
      <trkpt lat="44.562014" lon="10.709718">
        <ele>250.2</ele>
      </trkpt>
      <trkpt lat="44.562039" lon="10.709749">
        <ele>251.2</ele>
      </trkpt>
      <trkpt lat="44.562045" lon="10.709757">
        <ele>251.3</ele>
      </trkpt>
      <trkpt lat="44.562057" lon="10.709770">
        <ele>251.3</ele>
      </trkpt>
      <trkpt lat="44.562070" lon="10.709784">
        <ele>252.3</ele>
      </trkpt>
      <trkpt lat="44.562086" lon="10.709797">
        <ele>252.3</ele>
      </trkpt>
      <trkpt lat="44.562103" lon="10.709811">
        <ele>252.5</ele>
      </trkpt>
      <trkpt lat="44.562129" lon="10.709832">
        <ele>253.3</ele>
      </trkpt>
      <trkpt lat="44.562136" lon="10.709840">
        <ele>253.5</ele>
      </trkpt>
      <trkpt lat="44.562144" lon="10.709861">
        <ele>253.6</ele>
      </trkpt>
      <trkpt lat="44.562147" lon="10.709887">
        <ele>254.4</ele>
      </trkpt>
      <trkpt lat="44.562151" lon="10.709913">
        <ele>255.3</ele>
      </trkpt>
      <trkpt lat="44.562160" lon="10.709931">
        <ele>255.3</ele>
      </trkpt>
      <trkpt lat="44.562169" lon="10.709950">
        <ele>255.6</ele>
      </trkpt>
      <trkpt lat="44.562175" lon="10.709978">
        <ele>256.3</ele>
      </trkpt>
      <trkpt lat="44.562174" lon="10.709992">
        <ele>256.4</ele>
      </trkpt>
      <trkpt lat="44.562172" lon="10.709995">
        <ele>256.4</ele>
      </trkpt>
      <trkpt lat="44.562167" lon="10.710000">
        <ele>257.3</ele>
      </trkpt>
      <trkpt lat="44.562153" lon="10.710023">
        <ele>257.2</ele>
      </trkpt>
      <trkpt lat="44.562155" lon="10.710041">
        <ele>258</ele>
      </trkpt>
      <trkpt lat="44.562155" lon="10.710054">
        <ele>258.1</ele>
      </trkpt>
      <trkpt lat="44.562155" lon="10.710066">
        <ele>258.1</ele>
      </trkpt>
      <trkpt lat="44.562155" lon="10.710079">
        <ele>258.2</ele>
      </trkpt>
      <trkpt lat="44.562151" lon="10.710100">
        <ele>259</ele>
      </trkpt>
      <trkpt lat="44.562146" lon="10.710118">
        <ele>259</ele>
      </trkpt>
      <trkpt lat="44.562139" lon="10.710161">
        <ele>259.8</ele>
      </trkpt>
      <trkpt lat="44.562136" lon="10.710173">
        <ele>260.5</ele>
      </trkpt>
      <trkpt lat="44.562137" lon="10.710211">
        <ele>261.3</ele>
      </trkpt>
      <trkpt lat="44.562150" lon="10.710222">
        <ele>261.3</ele>
      </trkpt>
      <trkpt lat="44.562161" lon="10.710220">
        <ele>261.4</ele>
      </trkpt>
      <trkpt lat="44.562170" lon="10.710216">
        <ele>261.5</ele>
      </trkpt>
      <trkpt lat="44.562184" lon="10.710211">
        <ele>261.6</ele>
      </trkpt>
      <trkpt lat="44.562213" lon="10.710208">
        <ele>261.1</ele>
      </trkpt>
      <trkpt lat="44.562221" lon="10.710210">
        <ele>261.1</ele>
      </trkpt>
      <trkpt lat="44.562231" lon="10.710217">
        <ele>262</ele>
      </trkpt>
      <trkpt lat="44.562248" lon="10.710220">
        <ele>262</ele>
      </trkpt>
      <trkpt lat="44.562260" lon="10.710220">
        <ele>262.2</ele>
      </trkpt>
      <trkpt lat="44.562277" lon="10.710218">
        <ele>262.3</ele>
      </trkpt>
      <trkpt lat="44.562294" lon="10.710214">
        <ele>262.4</ele>
      </trkpt>
      <trkpt lat="44.562297" lon="10.710213">
        <ele>262.5</ele>
      </trkpt>
      <trkpt lat="44.562304" lon="10.710211">
        <ele>262.6</ele>
      </trkpt>
      <trkpt lat="44.562351" lon="10.710197">
        <ele>262.3</ele>
      </trkpt>
      <trkpt lat="44.562364" lon="10.710192">
        <ele>262.3</ele>
      </trkpt>
      <trkpt lat="44.562376" lon="10.710187">
        <ele>262.6</ele>
      </trkpt>
      <trkpt lat="44.562398" lon="10.710175">
        <ele>262.6</ele>
      </trkpt>
      <trkpt lat="44.562407" lon="10.710170">
        <ele>262.9</ele>
      </trkpt>
      <trkpt lat="44.562416" lon="10.710165">
        <ele>262.3</ele>
      </trkpt>
      <trkpt lat="44.562430" lon="10.710157">
        <ele>262.4</ele>
      </trkpt>
      <trkpt lat="44.562444" lon="10.710150">
        <ele>262.6</ele>
      </trkpt>
      <trkpt lat="44.562463" lon="10.710143">
        <ele>262.7</ele>
      </trkpt>
      <trkpt lat="44.562471" lon="10.710141">
        <ele>262.9</ele>
      </trkpt>
      <trkpt lat="44.562479" lon="10.710139">
        <ele>263</ele>
      </trkpt>
      <trkpt lat="44.562492" lon="10.710139">
        <ele>263.1</ele>
      </trkpt>
      <trkpt lat="44.562507" lon="10.710137">
        <ele>263.4</ele>
      </trkpt>
      <trkpt lat="44.562519" lon="10.710135">
        <ele>263.4</ele>
      </trkpt>
      <trkpt lat="44.562534" lon="10.710133">
        <ele>263.8</ele>
      </trkpt>
      <trkpt lat="44.562558" lon="10.710127">
        <ele>264</ele>
      </trkpt>
      <trkpt lat="44.562577" lon="10.710121">
        <ele>263.5</ele>
      </trkpt>
      <trkpt lat="44.562593" lon="10.710115">
        <ele>263.8</ele>
      </trkpt>
      <trkpt lat="44.562616" lon="10.710108">
        <ele>263.9</ele>
      </trkpt>
      <trkpt lat="44.562643" lon="10.710106">
        <ele>264.4</ele>
      </trkpt>
      <trkpt lat="44.562663" lon="10.710114">
        <ele>264.8</ele>
      </trkpt>
      <trkpt lat="44.562670" lon="10.710120">
        <ele>265</ele>
      </trkpt>
      <trkpt lat="44.562677" lon="10.710125">
        <ele>265.7</ele>
      </trkpt>
      <trkpt lat="44.562683" lon="10.710139">
        <ele>266.2</ele>
      </trkpt>
      <trkpt lat="44.562685" lon="10.710161">
        <ele>266.3</ele>
      </trkpt>
      <trkpt lat="44.562680" lon="10.710182">
        <ele>267.1</ele>
      </trkpt>
      <trkpt lat="44.562675" lon="10.710218">
        <ele>267.5</ele>
      </trkpt>
      <trkpt lat="44.562669" lon="10.710239">
        <ele>267.6</ele>
      </trkpt>
      <trkpt lat="44.562663" lon="10.710261">
        <ele>268.5</ele>
      </trkpt>
      <trkpt lat="44.562657" lon="10.710287">
        <ele>268.6</ele>
      </trkpt>
      <trkpt lat="44.562654" lon="10.710302">
        <ele>269.6</ele>
      </trkpt>
      <trkpt lat="44.562642" lon="10.710340">
        <ele>270.1</ele>
      </trkpt>
      <trkpt lat="44.562636" lon="10.710355">
        <ele>270.1</ele>
      </trkpt>
      <trkpt lat="44.562629" lon="10.710370">
        <ele>270.3</ele>
      </trkpt>
      <trkpt lat="44.562622" lon="10.710384">
        <ele>271.1</ele>
      </trkpt>
      <trkpt lat="44.562613" lon="10.710395">
        <ele>270.8</ele>
      </trkpt>
      <trkpt lat="44.562605" lon="10.710403">
        <ele>270.9</ele>
      </trkpt>
      <trkpt lat="44.562594" lon="10.710413">
        <ele>271</ele>
      </trkpt>
      <trkpt lat="44.562583" lon="10.710420">
        <ele>270.7</ele>
      </trkpt>
      <trkpt lat="44.562574" lon="10.710428">
        <ele>271.5</ele>
      </trkpt>
      <trkpt lat="44.562565" lon="10.710437">
        <ele>271.6</ele>
      </trkpt>
      <trkpt lat="44.562559" lon="10.710446">
        <ele>271.7</ele>
      </trkpt>
      <trkpt lat="44.562551" lon="10.710458">
        <ele>271.3</ele>
      </trkpt>
      <trkpt lat="44.562543" lon="10.710472">
        <ele>272</ele>
      </trkpt>
      <trkpt lat="44.562529" lon="10.710496">
        <ele>272</ele>
      </trkpt>
      <trkpt lat="44.562524" lon="10.710504">
        <ele>271.6</ele>
      </trkpt>
      <trkpt lat="44.562519" lon="10.710511">
        <ele>271.7</ele>
      </trkpt>
      <trkpt lat="44.562511" lon="10.710528">
        <ele>272.3</ele>
      </trkpt>
      <trkpt lat="44.562504" lon="10.710543">
        <ele>272.4</ele>
      </trkpt>
      <trkpt lat="44.562497" lon="10.710571">
        <ele>273.1</ele>
      </trkpt>
      <trkpt lat="44.562493" lon="10.710584">
        <ele>272.7</ele>
      </trkpt>
      <trkpt lat="44.562489" lon="10.710597">
        <ele>272.7</ele>
      </trkpt>
      <trkpt lat="44.562491" lon="10.710619">
        <ele>273.4</ele>
      </trkpt>
      <trkpt lat="44.562501" lon="10.710623">
        <ele>273.8</ele>
      </trkpt>
      <trkpt lat="44.562511" lon="10.710627">
        <ele>273.8</ele>
      </trkpt>
      <trkpt lat="44.562521" lon="10.710630">
        <ele>273.9</ele>
      </trkpt>
      <trkpt lat="44.562530" lon="10.710634">
        <ele>274.3</ele>
      </trkpt>
      <trkpt lat="44.562540" lon="10.710638">
        <ele>274.4</ele>
      </trkpt>
      <trkpt lat="44.562552" lon="10.710630">
        <ele>274.4</ele>
      </trkpt>
      <trkpt lat="44.562562" lon="10.710626">
        <ele>274.9</ele>
      </trkpt>
      <trkpt lat="44.562575" lon="10.710628">
        <ele>274.9</ele>
      </trkpt>
      <trkpt lat="44.562589" lon="10.710628">
        <ele>275.4</ele>
      </trkpt>
      <trkpt lat="44.562606" lon="10.710625">
        <ele>275.5</ele>
      </trkpt>
      <trkpt lat="44.562636" lon="10.710623">
        <ele>276</ele>
      </trkpt>
      <trkpt lat="44.562643" lon="10.710623">
        <ele>276</ele>
      </trkpt>
      <trkpt lat="44.562668" lon="10.710625">
        <ele>276.6</ele>
      </trkpt>
      <trkpt lat="44.562678" lon="10.710622">
        <ele>276.6</ele>
      </trkpt>
      <trkpt lat="44.562689" lon="10.710619">
        <ele>277.1</ele>
      </trkpt>
      <trkpt lat="44.562700" lon="10.710616">
        <ele>277.2</ele>
      </trkpt>
      <trkpt lat="44.562711" lon="10.710613">
        <ele>277.7</ele>
      </trkpt>
      <trkpt lat="44.562729" lon="10.710603">
        <ele>277.8</ele>
      </trkpt>
      <trkpt lat="44.562739" lon="10.710599">
        <ele>277.8</ele>
      </trkpt>
      <trkpt lat="44.562750" lon="10.710595">
        <ele>277.6</ele>
      </trkpt>
      <trkpt lat="44.562761" lon="10.710591">
        <ele>277.6</ele>
      </trkpt>
      <trkpt lat="44.562772" lon="10.710587">
        <ele>278.3</ele>
      </trkpt>
      <trkpt lat="44.562791" lon="10.710587">
        <ele>278.3</ele>
      </trkpt>
      <trkpt lat="44.562823" lon="10.710599">
        <ele>279.7</ele>
      </trkpt>
      <trkpt lat="44.562845" lon="10.710609">
        <ele>280.4</ele>
      </trkpt>
      <trkpt lat="44.562852" lon="10.710617">
        <ele>280.4</ele>
      </trkpt>
      <trkpt lat="44.562860" lon="10.710625">
        <ele>280.4</ele>
      </trkpt>
      <trkpt lat="44.562867" lon="10.710633">
        <ele>281.1</ele>
      </trkpt>
      <trkpt lat="44.562867" lon="10.710666">
        <ele>282</ele>
      </trkpt>
      <trkpt lat="44.562863" lon="10.710677">
        <ele>281.3</ele>
      </trkpt>
      <trkpt lat="44.562860" lon="10.710687">
        <ele>282.3</ele>
      </trkpt>
      <trkpt lat="44.562849" lon="10.710699">
        <ele>282.3</ele>
      </trkpt>
      <trkpt lat="44.562838" lon="10.710710">
        <ele>282.3</ele>
      </trkpt>
      <trkpt lat="44.562827" lon="10.710720">
        <ele>281.7</ele>
      </trkpt>
      <trkpt lat="44.562819" lon="10.710734">
        <ele>282.6</ele>
      </trkpt>
      <trkpt lat="44.562814" lon="10.710750">
        <ele>282.6</ele>
      </trkpt>
      <trkpt lat="44.562806" lon="10.710774">
        <ele>283.6</ele>
      </trkpt>
      <trkpt lat="44.562800" lon="10.710794">
        <ele>283</ele>
      </trkpt>
      <trkpt lat="44.562793" lon="10.710811">
        <ele>283</ele>
      </trkpt>
      <trkpt lat="44.562787" lon="10.710830">
        <ele>284.1</ele>
      </trkpt>
      <trkpt lat="44.562782" lon="10.710858">
        <ele>285.1</ele>
      </trkpt>
      <trkpt lat="44.562784" lon="10.710876">
        <ele>285.1</ele>
      </trkpt>
      <trkpt lat="44.562786" lon="10.710892">
        <ele>285.1</ele>
      </trkpt>
      <trkpt lat="44.562788" lon="10.710908">
        <ele>286.2</ele>
      </trkpt>
      <trkpt lat="44.562790" lon="10.710927">
        <ele>286.2</ele>
      </trkpt>
      <trkpt lat="44.562792" lon="10.710938">
        <ele>286.2</ele>
      </trkpt>
      <trkpt lat="44.562794" lon="10.710965">
        <ele>287.2</ele>
      </trkpt>
      <trkpt lat="44.562794" lon="10.710982">
        <ele>287.2</ele>
      </trkpt>
      <trkpt lat="44.562795" lon="10.710998">
        <ele>288.2</ele>
      </trkpt>
      <trkpt lat="44.562799" lon="10.711013">
        <ele>288.2</ele>
      </trkpt>
      <trkpt lat="44.562810" lon="10.711015">
        <ele>288.9</ele>
      </trkpt>
      <trkpt lat="44.562825" lon="10.711001">
        <ele>289</ele>
      </trkpt>
      <trkpt lat="44.562834" lon="10.710986">
        <ele>289.7</ele>
      </trkpt>
      <trkpt lat="44.562848" lon="10.710964">
        <ele>288.7</ele>
      </trkpt>
      <trkpt lat="44.562864" lon="10.710945">
        <ele>289.4</ele>
      </trkpt>
      <trkpt lat="44.562877" lon="10.710933">
        <ele>288.4</ele>
      </trkpt>
      <trkpt lat="44.562889" lon="10.710926">
        <ele>288.5</ele>
      </trkpt>
      <trkpt lat="44.562905" lon="10.710924">
        <ele>289.1</ele>
      </trkpt>
      <trkpt lat="44.562934" lon="10.710927">
        <ele>289.7</ele>
      </trkpt>
      <trkpt lat="44.562948" lon="10.710928">
        <ele>289.8</ele>
      </trkpt>
      <trkpt lat="44.562963" lon="10.710930">
        <ele>290.4</ele>
      </trkpt>
      <trkpt lat="44.562977" lon="10.710931">
        <ele>290.4</ele>
      </trkpt>
      <trkpt lat="44.562993" lon="10.710934">
        <ele>291</ele>
      </trkpt>
      <trkpt lat="44.563008" lon="10.710936">
        <ele>291.1</ele>
      </trkpt>
      <trkpt lat="44.563023" lon="10.710939">
        <ele>291.7</ele>
      </trkpt>
      <trkpt lat="44.563038" lon="10.710942">
        <ele>292.7</ele>
      </trkpt>
      <trkpt lat="44.563073" lon="10.710932">
        <ele>292.4</ele>
      </trkpt>
      <trkpt lat="44.563084" lon="10.710927">
        <ele>293</ele>
      </trkpt>
      <trkpt lat="44.563096" lon="10.710923">
        <ele>293</ele>
      </trkpt>
      <trkpt lat="44.563112" lon="10.710918">
        <ele>293.6</ele>
      </trkpt>
      <trkpt lat="44.563124" lon="10.710917">
        <ele>293.7</ele>
      </trkpt>
      <trkpt lat="44.563135" lon="10.710914">
        <ele>293.7</ele>
      </trkpt>
      <trkpt lat="44.563153" lon="10.710909">
        <ele>294.2</ele>
      </trkpt>
      <trkpt lat="44.563173" lon="10.710906">
        <ele>294.7</ele>
      </trkpt>
      <trkpt lat="44.563183" lon="10.710904">
        <ele>294.7</ele>
      </trkpt>
      <trkpt lat="44.563192" lon="10.710902">
        <ele>294.7</ele>
      </trkpt>
      <trkpt lat="44.563205" lon="10.710903">
        <ele>295.2</ele>
      </trkpt>
      <trkpt lat="44.563212" lon="10.710905">
        <ele>295.2</ele>
      </trkpt>
      <trkpt lat="44.563226" lon="10.710905">
        <ele>295.2</ele>
      </trkpt>
      <trkpt lat="44.563261" lon="10.710888">
        <ele>295.2</ele>
      </trkpt>
      <trkpt lat="44.563275" lon="10.710882">
        <ele>295.2</ele>
      </trkpt>
      <trkpt lat="44.563316" lon="10.710867">
        <ele>295.7</ele>
      </trkpt>
      <trkpt lat="44.563364" lon="10.710862">
        <ele>296.7</ele>
      </trkpt>
      <trkpt lat="44.563392" lon="10.710872">
        <ele>297.1</ele>
      </trkpt>
      <trkpt lat="44.563403" lon="10.710877">
        <ele>297.1</ele>
      </trkpt>
      <trkpt lat="44.563418" lon="10.710888">
        <ele>297.5</ele>
      </trkpt>
      <trkpt lat="44.563432" lon="10.710895">
        <ele>297.5</ele>
      </trkpt>
      <trkpt lat="44.563446" lon="10.710901">
        <ele>298.8</ele>
      </trkpt>
      <trkpt lat="44.563460" lon="10.710907">
        <ele>298.8</ele>
      </trkpt>
      <trkpt lat="44.563476" lon="10.710915">
        <ele>299.1</ele>
      </trkpt>
      <trkpt lat="44.563487" lon="10.710920">
        <ele>299.2</ele>
      </trkpt>
      <trkpt lat="44.563497" lon="10.710928">
        <ele>299.2</ele>
      </trkpt>
      <trkpt lat="44.563515" lon="10.710936">
        <ele>299.6</ele>
      </trkpt>
      <trkpt lat="44.563531" lon="10.710941">
        <ele>300.4</ele>
      </trkpt>
      <trkpt lat="44.563543" lon="10.710945">
        <ele>300.8</ele>
      </trkpt>
      <trkpt lat="44.563551" lon="10.710951">
        <ele>300.9</ele>
      </trkpt>
      <trkpt lat="44.563566" lon="10.710964">
        <ele>300.9</ele>
      </trkpt>
      <trkpt lat="44.563574" lon="10.710970">
        <ele>301.4</ele>
      </trkpt>
      <trkpt lat="44.563582" lon="10.710977">
        <ele>301.4</ele>
      </trkpt>
      <trkpt lat="44.563591" lon="10.710986">
        <ele>302.2</ele>
      </trkpt>
      <trkpt lat="44.563607" lon="10.711000">
        <ele>302.6</ele>
      </trkpt>
      <trkpt lat="44.563618" lon="10.711007">
        <ele>302.7</ele>
      </trkpt>
      <trkpt lat="44.563633" lon="10.711023">
        <ele>303.1</ele>
      </trkpt>
      <trkpt lat="44.563639" lon="10.711033">
        <ele>303.9</ele>
      </trkpt>
      <trkpt lat="44.563645" lon="10.711042">
        <ele>304</ele>
      </trkpt>
      <trkpt lat="44.563663" lon="10.711064">
        <ele>304.4</ele>
      </trkpt>
      <trkpt lat="44.563673" lon="10.711073">
        <ele>305.3</ele>
      </trkpt>
      <trkpt lat="44.563684" lon="10.711081">
        <ele>305.3</ele>
      </trkpt>
      <trkpt lat="44.563694" lon="10.711089">
        <ele>305.7</ele>
      </trkpt>
      <trkpt lat="44.563704" lon="10.711098">
        <ele>305.8</ele>
      </trkpt>
      <trkpt lat="44.563719" lon="10.711106">
        <ele>305.8</ele>
      </trkpt>
      <trkpt lat="44.563728" lon="10.711123">
        <ele>307.1</ele>
      </trkpt>
      <trkpt lat="44.563722" lon="10.711136">
        <ele>307.1</ele>
      </trkpt>
      <trkpt lat="44.563707" lon="10.711160">
        <ele>307.8</ele>
      </trkpt>
      <trkpt lat="44.563687" lon="10.711172">
        <ele>307.4</ele>
      </trkpt>
      <trkpt lat="44.563665" lon="10.711173">
        <ele>307.4</ele>
      </trkpt>
      <trkpt lat="44.563653" lon="10.711175">
        <ele>307</ele>
      </trkpt>
      <trkpt lat="44.563644" lon="10.711182">
        <ele>307.1</ele>
      </trkpt>
      <trkpt lat="44.563634" lon="10.711189">
        <ele>307.1</ele>
      </trkpt>
      <trkpt lat="44.563626" lon="10.711202">
        <ele>307.7</ele>
      </trkpt>
      <trkpt lat="44.563616" lon="10.711218">
        <ele>307.8</ele>
      </trkpt>
      <trkpt lat="44.563607" lon="10.711230">
        <ele>307.8</ele>
      </trkpt>
      <trkpt lat="44.563599" lon="10.711238">
        <ele>307.8</ele>
      </trkpt>
      <trkpt lat="44.563589" lon="10.711247">
        <ele>308.5</ele>
      </trkpt>
      <trkpt lat="44.563578" lon="10.711266">
        <ele>308.5</ele>
      </trkpt>
      <trkpt lat="44.563567" lon="10.711286">
        <ele>309.6</ele>
      </trkpt>
      <trkpt lat="44.563564" lon="10.711307">
        <ele>309.3</ele>
      </trkpt>
      <trkpt lat="44.563566" lon="10.711319">
        <ele>309.3</ele>
      </trkpt>
      <trkpt lat="44.563571" lon="10.711328">
        <ele>310.7</ele>
      </trkpt>
      <trkpt lat="44.563584" lon="10.711337">
        <ele>310.7</ele>
      </trkpt>
      <trkpt lat="44.563598" lon="10.711339">
        <ele>311.1</ele>
      </trkpt>
      <trkpt lat="44.563610" lon="10.711340">
        <ele>311.1</ele>
      </trkpt>
      <trkpt lat="44.563621" lon="10.711342">
        <ele>311.2</ele>
      </trkpt>
      <trkpt lat="44.563632" lon="10.711343">
        <ele>311.6</ele>
      </trkpt>
      <trkpt lat="44.563644" lon="10.711346">
        <ele>311.6</ele>
      </trkpt>
      <trkpt lat="44.563659" lon="10.711353">
        <ele>312</ele>
      </trkpt>
      <trkpt lat="44.563670" lon="10.711357">
        <ele>312</ele>
      </trkpt>
      <trkpt lat="44.563678" lon="10.711359">
        <ele>312</ele>
      </trkpt>
      <trkpt lat="44.563688" lon="10.711360">
        <ele>312</ele>
      </trkpt>
      <trkpt lat="44.563708" lon="10.711362">
        <ele>312.4</ele>
      </trkpt>
      <trkpt lat="44.563723" lon="10.711361">
        <ele>312.8</ele>
      </trkpt>
      <trkpt lat="44.563738" lon="10.711359">
        <ele>312.8</ele>
      </trkpt>
      <trkpt lat="44.563749" lon="10.711355">
        <ele>312.9</ele>
      </trkpt>
      <trkpt lat="44.563769" lon="10.711347">
        <ele>313.3</ele>
      </trkpt>
      <trkpt lat="44.563785" lon="10.711340">
        <ele>313.7</ele>
      </trkpt>
      <trkpt lat="44.563794" lon="10.711337">
        <ele>313.7</ele>
      </trkpt>
      <trkpt lat="44.563818" lon="10.711335">
        <ele>314.2</ele>
      </trkpt>
      <trkpt lat="44.563828" lon="10.711341">
        <ele>314.2</ele>
      </trkpt>
      <trkpt lat="44.563839" lon="10.711351">
        <ele>314.2</ele>
      </trkpt>
      <trkpt lat="44.563848" lon="10.711364">
        <ele>314.7</ele>
      </trkpt>
      <trkpt lat="44.563855" lon="10.711379">
        <ele>315.7</ele>
      </trkpt>
      <trkpt lat="44.563860" lon="10.711393">
        <ele>315.7</ele>
      </trkpt>
      <trkpt lat="44.563866" lon="10.711408">
        <ele>315.7</ele>
      </trkpt>
      <trkpt lat="44.563873" lon="10.711435">
        <ele>317.2</ele>
      </trkpt>
      <trkpt lat="44.563877" lon="10.711446">
        <ele>317.2</ele>
      </trkpt>
      <trkpt lat="44.563881" lon="10.711457">
        <ele>318.1</ele>
      </trkpt>
      <trkpt lat="44.563888" lon="10.711467">
        <ele>318.1</ele>
      </trkpt>
      <trkpt lat="44.563894" lon="10.711474">
        <ele>318.2</ele>
      </trkpt>
      <trkpt lat="44.563903" lon="10.711487">
        <ele>318.7</ele>
      </trkpt>
      <trkpt lat="44.563912" lon="10.711499">
        <ele>319.6</ele>
      </trkpt>
      <trkpt lat="44.563921" lon="10.711512">
        <ele>319.6</ele>
      </trkpt>
      <trkpt lat="44.563926" lon="10.711524">
        <ele>319.7</ele>
      </trkpt>
      <trkpt lat="44.563927" lon="10.711538">
        <ele>319.7</ele>
      </trkpt>
      <trkpt lat="44.563925" lon="10.711551">
        <ele>320.6</ele>
      </trkpt>
      <trkpt lat="44.563921" lon="10.711565">
        <ele>320.6</ele>
      </trkpt>
      <trkpt lat="44.563916" lon="10.711579">
        <ele>320.7</ele>
      </trkpt>
      <trkpt lat="44.563909" lon="10.711593">
        <ele>321.6</ele>
      </trkpt>
      <trkpt lat="44.563901" lon="10.711606">
        <ele>321.1</ele>
      </trkpt>
      <trkpt lat="44.563894" lon="10.711615">
        <ele>321.1</ele>
      </trkpt>
      <trkpt lat="44.563888" lon="10.711632">
        <ele>322.1</ele>
      </trkpt>
      <trkpt lat="44.563891" lon="10.711645">
        <ele>322.2</ele>
      </trkpt>
      <trkpt lat="44.563908" lon="10.711661">
        <ele>322.7</ele>
      </trkpt>
      <trkpt lat="44.563917" lon="10.711665">
        <ele>322.7</ele>
      </trkpt>
      <trkpt lat="44.563926" lon="10.711669">
        <ele>322.7</ele>
      </trkpt>
      <trkpt lat="44.563940" lon="10.711667">
        <ele>323.3</ele>
      </trkpt>
      <trkpt lat="44.563953" lon="10.711667">
        <ele>323.3</ele>
      </trkpt>
      <trkpt lat="44.563965" lon="10.711671">
        <ele>325.3</ele>
      </trkpt>
      <trkpt lat="44.563979" lon="10.711678">
        <ele>325.3</ele>
      </trkpt>
      <trkpt lat="44.563995" lon="10.711689">
        <ele>325.8</ele>
      </trkpt>
      <trkpt lat="44.564006" lon="10.711706">
        <ele>325.8</ele>
      </trkpt>
      <trkpt lat="44.564013" lon="10.711729">
        <ele>326.7</ele>
      </trkpt>
      <trkpt lat="44.564014" lon="10.711746">
        <ele>326.7</ele>
      </trkpt>
      <trkpt lat="44.564013" lon="10.711766">
        <ele>327.5</ele>
      </trkpt>
      <trkpt lat="44.564006" lon="10.711785">
        <ele>327.5</ele>
      </trkpt>
      <trkpt lat="44.563998" lon="10.711799">
        <ele>328.2</ele>
      </trkpt>
      <trkpt lat="44.563984" lon="10.711811">
        <ele>327.9</ele>
      </trkpt>
      <trkpt lat="44.563957" lon="10.711832">
        <ele>327.5</ele>
      </trkpt>
      <trkpt lat="44.563948" lon="10.711840">
        <ele>327.5</ele>
      </trkpt>
      <trkpt lat="44.563939" lon="10.711848">
        <ele>328.2</ele>
      </trkpt>
      <trkpt lat="44.563930" lon="10.711856">
        <ele>327.8</ele>
      </trkpt>
      <trkpt lat="44.563921" lon="10.711864">
        <ele>327.9</ele>
      </trkpt>
      <trkpt lat="44.563911" lon="10.711874">
        <ele>327.9</ele>
      </trkpt>
      <trkpt lat="44.563908" lon="10.711878">
        <ele>327.9</ele>
      </trkpt>
      <trkpt lat="44.563897" lon="10.711884">
        <ele>327.5</ele>
      </trkpt>
      <trkpt lat="44.563886" lon="10.711890">
        <ele>328.3</ele>
      </trkpt>
      <trkpt lat="44.563877" lon="10.711895">
        <ele>328.3</ele>
      </trkpt>
      <trkpt lat="44.563866" lon="10.711902">
        <ele>327.9</ele>
      </trkpt>
      <trkpt lat="44.563841" lon="10.711923">
        <ele>327.6</ele>
      </trkpt>
      <trkpt lat="44.563835" lon="10.711930">
        <ele>328.4</ele>
      </trkpt>
      <trkpt lat="44.563823" lon="10.711943">
        <ele>328.4</ele>
      </trkpt>
      <trkpt lat="44.563811" lon="10.711955">
        <ele>328.1</ele>
      </trkpt>
      <trkpt lat="44.563795" lon="10.711963">
        <ele>328.1</ele>
      </trkpt>
      <trkpt lat="44.563778" lon="10.711970">
        <ele>327.8</ele>
      </trkpt>
      <trkpt lat="44.563758" lon="10.711980">
        <ele>328.6</ele>
      </trkpt>
      <trkpt lat="44.563750" lon="10.711983">
        <ele>328.6</ele>
      </trkpt>
      <trkpt lat="44.563742" lon="10.711987">
        <ele>328.4</ele>
      </trkpt>
      <trkpt lat="44.563728" lon="10.711990">
        <ele>328.4</ele>
      </trkpt>
      <trkpt lat="44.563714" lon="10.711996">
        <ele>328.1</ele>
      </trkpt>
      <trkpt lat="44.563706" lon="10.712007">
        <ele>328.1</ele>
      </trkpt>
      <trkpt lat="44.563696" lon="10.712019">
        <ele>328.9</ele>
      </trkpt>
      <trkpt lat="44.563689" lon="10.712028">
        <ele>329</ele>
      </trkpt>
      <trkpt lat="44.563673" lon="10.712048">
        <ele>328.7</ele>
      </trkpt>
      <trkpt lat="44.563663" lon="10.712062">
        <ele>329.5</ele>
      </trkpt>
      <trkpt lat="44.563653" lon="10.712087">
        <ele>329.2</ele>
      </trkpt>
      <trkpt lat="44.563649" lon="10.712100">
        <ele>330</ele>
      </trkpt>
      <trkpt lat="44.563646" lon="10.712113">
        <ele>330</ele>
      </trkpt>
      <trkpt lat="44.563644" lon="10.712127">
        <ele>330.1</ele>
      </trkpt>
      <trkpt lat="44.563643" lon="10.712141">
        <ele>330.1</ele>
      </trkpt>
      <trkpt lat="44.563642" lon="10.712157">
        <ele>330.9</ele>
      </trkpt>
      <trkpt lat="44.563638" lon="10.712181">
        <ele>330.9</ele>
      </trkpt>
      <trkpt lat="44.563634" lon="10.712193">
        <ele>331.7</ele>
      </trkpt>
      <trkpt lat="44.563630" lon="10.712205">
        <ele>331.7</ele>
      </trkpt>
      <trkpt lat="44.563624" lon="10.712225">
        <ele>331.4</ele>
      </trkpt>
      <trkpt lat="44.563619" lon="10.712249">
        <ele>332.1</ele>
      </trkpt>
      <trkpt lat="44.563618" lon="10.712262">
        <ele>332.1</ele>
      </trkpt>
      <trkpt lat="44.563612" lon="10.712274">
        <ele>332.9</ele>
      </trkpt>
      <trkpt lat="44.563606" lon="10.712283">
        <ele>332.9</ele>
      </trkpt>
      <trkpt lat="44.563590" lon="10.712296">
        <ele>332.5</ele>
      </trkpt>
      <trkpt lat="44.563573" lon="10.712305">
        <ele>332.5</ele>
      </trkpt>
      <trkpt lat="44.563559" lon="10.712309">
        <ele>332.1</ele>
      </trkpt>
      <trkpt lat="44.563539" lon="10.712317">
        <ele>332.8</ele>
      </trkpt>
      <trkpt lat="44.563526" lon="10.712329">
        <ele>332.3</ele>
      </trkpt>
      <trkpt lat="44.563521" lon="10.712343">
        <ele>332.3</ele>
      </trkpt>
      <trkpt lat="44.563518" lon="10.712356">
        <ele>332.4</ele>
      </trkpt>
      <trkpt lat="44.563518" lon="10.712371">
        <ele>333.1</ele>
      </trkpt>
      <trkpt lat="44.563520" lon="10.712385">
        <ele>333.1</ele>
      </trkpt>
      <trkpt lat="44.563530" lon="10.712406">
        <ele>333.9</ele>
      </trkpt>
      <trkpt lat="44.563543" lon="10.712413">
        <ele>334.4</ele>
      </trkpt>
      <trkpt lat="44.563553" lon="10.712407">
        <ele>334.4</ele>
      </trkpt>
      <trkpt lat="44.563562" lon="10.712399">
        <ele>333.7</ele>
      </trkpt>
      <trkpt lat="44.563575" lon="10.712392">
        <ele>334.2</ele>
      </trkpt>
      <trkpt lat="44.563582" lon="10.712386">
        <ele>334.2</ele>
      </trkpt>
      <trkpt lat="44.563592" lon="10.712378">
        <ele>334.2</ele>
      </trkpt>
      <trkpt lat="44.563603" lon="10.712369">
        <ele>334.7</ele>
      </trkpt>
      <trkpt lat="44.563611" lon="10.712361">
        <ele>334.7</ele>
      </trkpt>
      <trkpt lat="44.563621" lon="10.712350">
        <ele>334</ele>
      </trkpt>
      <trkpt lat="44.563631" lon="10.712342">
        <ele>334.5</ele>
      </trkpt>
      <trkpt lat="44.563642" lon="10.712335">
        <ele>334.5</ele>
      </trkpt>
      <trkpt lat="44.563652" lon="10.712329">
        <ele>334.6</ele>
      </trkpt>
      <trkpt lat="44.563663" lon="10.712321">
        <ele>335</ele>
      </trkpt>
      <trkpt lat="44.563673" lon="10.712317">
        <ele>335</ele>
      </trkpt>
      <trkpt lat="44.563684" lon="10.712312">
        <ele>334.3</ele>
      </trkpt>
      <trkpt lat="44.563693" lon="10.712306">
        <ele>334.7</ele>
      </trkpt>
      <trkpt lat="44.563702" lon="10.712300">
        <ele>334.7</ele>
      </trkpt>
      <trkpt lat="44.563711" lon="10.712296">
        <ele>334.8</ele>
      </trkpt>
      <trkpt lat="44.563724" lon="10.712293">
        <ele>335.1</ele>
      </trkpt>
      <trkpt lat="44.563739" lon="10.712290">
        <ele>335.2</ele>
      </trkpt>
      <trkpt lat="44.563761" lon="10.712291">
        <ele>335.5</ele>
      </trkpt>
      <trkpt lat="44.563772" lon="10.712292">
        <ele>335.5</ele>
      </trkpt>
      <trkpt lat="44.563783" lon="10.712292">
        <ele>335.8</ele>
      </trkpt>
      <trkpt lat="44.563800" lon="10.712302">
        <ele>335.9</ele>
      </trkpt>
      <trkpt lat="44.563815" lon="10.712309">
        <ele>336.2</ele>
      </trkpt>
      <trkpt lat="44.563824" lon="10.712317">
        <ele>336.9</ele>
      </trkpt>
      <trkpt lat="44.563835" lon="10.712326">
        <ele>336.9</ele>
      </trkpt>
      <trkpt lat="44.563845" lon="10.712333">
        <ele>337.2</ele>
      </trkpt>
      <trkpt lat="44.563854" lon="10.712337">
        <ele>337.2</ele>
      </trkpt>
      <trkpt lat="44.563861" lon="10.712344">
        <ele>337.3</ele>
      </trkpt>
      <trkpt lat="44.563865" lon="10.712360">
        <ele>338</ele>
      </trkpt>
      <trkpt lat="44.563861" lon="10.712381">
        <ele>338</ele>
      </trkpt>
      <trkpt lat="44.563848" lon="10.712396">
        <ele>338.1</ele>
      </trkpt>
      <trkpt lat="44.563818" lon="10.712410">
        <ele>338.6</ele>
      </trkpt>
      <trkpt lat="44.563811" lon="10.712410">
        <ele>338.4</ele>
      </trkpt>
      <trkpt lat="44.563800" lon="10.712410">
        <ele>338.4</ele>
      </trkpt>
      <trkpt lat="44.563789" lon="10.712412">
        <ele>338.4</ele>
      </trkpt>
      <trkpt lat="44.563780" lon="10.712415">
        <ele>338.1</ele>
      </trkpt>
      <trkpt lat="44.563772" lon="10.712435">
        <ele>338.1</ele>
      </trkpt>
      <trkpt lat="44.563771" lon="10.712445">
        <ele>339</ele>
      </trkpt>
      <trkpt lat="44.563771" lon="10.712454">
        <ele>339</ele>
      </trkpt>
      <trkpt lat="44.563770" lon="10.712464">
        <ele>339</ele>
      </trkpt>
      <trkpt lat="44.563770" lon="10.712476">
        <ele>339</ele>
      </trkpt>
      <trkpt lat="44.563771" lon="10.712506">
        <ele>339.9</ele>
      </trkpt>
      <trkpt lat="44.563770" lon="10.712524">
        <ele>339.9</ele>
      </trkpt>
      <trkpt lat="44.563769" lon="10.712540">
        <ele>340.8</ele>
      </trkpt>
      <trkpt lat="44.563765" lon="10.712563">
        <ele>340.8</ele>
      </trkpt>
      <trkpt lat="44.563763" lon="10.712581">
        <ele>341.7</ele>
      </trkpt>
      <trkpt lat="44.563763" lon="10.712594">
        <ele>341.7</ele>
      </trkpt>
      <trkpt lat="44.563766" lon="10.712606">
        <ele>341.7</ele>
      </trkpt>
      <trkpt lat="44.563769" lon="10.712616">
        <ele>342.5</ele>
      </trkpt>
      <trkpt lat="44.563775" lon="10.712628">
        <ele>342.5</ele>
      </trkpt>
      <trkpt lat="44.563793" lon="10.712635">
        <ele>342.9</ele>
      </trkpt>
      <trkpt lat="44.563805" lon="10.712630">
        <ele>342.9</ele>
      </trkpt>
      <trkpt lat="44.563815" lon="10.712626">
        <ele>343.2</ele>
      </trkpt>
      <trkpt lat="44.563827" lon="10.712624">
        <ele>343.2</ele>
      </trkpt>
      <trkpt lat="44.563848" lon="10.712627">
        <ele>343.5</ele>
      </trkpt>
      <trkpt lat="44.563857" lon="10.712630">
        <ele>343.5</ele>
      </trkpt>
      <trkpt lat="44.563865" lon="10.712632">
        <ele>343.6</ele>
      </trkpt>
      <trkpt lat="44.563874" lon="10.712636">
        <ele>343.8</ele>
      </trkpt>
      <trkpt lat="44.563884" lon="10.712644">
        <ele>343.9</ele>
      </trkpt>
      <trkpt lat="44.563891" lon="10.712656">
        <ele>343.9</ele>
      </trkpt>
      <trkpt lat="44.563897" lon="10.712681">
        <ele>344.7</ele>
      </trkpt>
      <trkpt lat="44.563899" lon="10.712703">
        <ele>345.4</ele>
      </trkpt>
      <trkpt lat="44.563900" lon="10.712716">
        <ele>345.4</ele>
      </trkpt>
      <trkpt lat="44.563897" lon="10.712734">
        <ele>345.4</ele>
      </trkpt>
      <trkpt lat="44.563892" lon="10.712751">
        <ele>346.1</ele>
      </trkpt>
      <trkpt lat="44.563880" lon="10.712775">
        <ele>346.2</ele>
      </trkpt>
      <trkpt lat="44.563874" lon="10.712784">
        <ele>346.2</ele>
      </trkpt>
      <trkpt lat="44.563867" lon="10.712794">
        <ele>346.6</ele>
      </trkpt>
      <trkpt lat="44.563855" lon="10.712814">
        <ele>346.6</ele>
      </trkpt>
      <trkpt lat="44.563845" lon="10.712832">
        <ele>347.3</ele>
      </trkpt>
      <trkpt lat="44.563837" lon="10.712847">
        <ele>347</ele>
      </trkpt>
      <trkpt lat="44.563831" lon="10.712872">
        <ele>347.7</ele>
      </trkpt>
      <trkpt lat="44.563824" lon="10.712890">
        <ele>347.7</ele>
      </trkpt>
      <trkpt lat="44.563817" lon="10.712907">
        <ele>347.8</ele>
      </trkpt>
      <trkpt lat="44.563810" lon="10.712926">
        <ele>348.2</ele>
      </trkpt>
      <trkpt lat="44.563803" lon="10.712941">
        <ele>348.2</ele>
      </trkpt>
      <trkpt lat="44.563792" lon="10.712977">
        <ele>349</ele>
      </trkpt>
      <trkpt lat="44.563777" lon="10.713013">
        <ele>349.6</ele>
      </trkpt>
      <trkpt lat="44.563757" lon="10.713072">
        <ele>350.4</ele>
      </trkpt>
      <trkpt lat="44.563753" lon="10.713088">
        <ele>351.3</ele>
      </trkpt>
      <trkpt lat="44.563748" lon="10.713105">
        <ele>351.1</ele>
      </trkpt>
      <trkpt lat="44.563738" lon="10.713140">
        <ele>351.9</ele>
      </trkpt>
      <trkpt lat="44.563735" lon="10.713155">
        <ele>351.9</ele>
      </trkpt>
      <trkpt lat="44.563733" lon="10.713171">
        <ele>351.9</ele>
      </trkpt>
      <trkpt lat="44.563731" lon="10.713186">
        <ele>352.7</ele>
      </trkpt>
      <trkpt lat="44.563729" lon="10.713202">
        <ele>352.7</ele>
      </trkpt>
      <trkpt lat="44.563728" lon="10.713233">
        <ele>353.5</ele>
      </trkpt>
      <trkpt lat="44.563728" lon="10.713250">
        <ele>353.5</ele>
      </trkpt>
      <trkpt lat="44.563727" lon="10.713272">
        <ele>354.3</ele>
      </trkpt>
      <trkpt lat="44.563724" lon="10.713296">
        <ele>354.3</ele>
      </trkpt>
      <trkpt lat="44.563718" lon="10.713317">
        <ele>354.9</ele>
      </trkpt>
      <trkpt lat="44.563708" lon="10.713354">
        <ele>355.7</ele>
      </trkpt>
      <trkpt lat="44.563706" lon="10.713369">
        <ele>355.7</ele>
      </trkpt>
      <trkpt lat="44.563708" lon="10.713392">
        <ele>356.5</ele>
      </trkpt>
      <trkpt lat="44.563714" lon="10.713420">
        <ele>356.5</ele>
      </trkpt>
      <trkpt lat="44.563716" lon="10.713433">
        <ele>357.3</ele>
      </trkpt>
      <trkpt lat="44.563719" lon="10.713446">
        <ele>357.3</ele>
      </trkpt>
      <trkpt lat="44.563724" lon="10.713464">
        <ele>357.5</ele>
      </trkpt>
      <trkpt lat="44.563731" lon="10.713482">
        <ele>358.2</ele>
      </trkpt>
      <trkpt lat="44.563740" lon="10.713494">
        <ele>358.2</ele>
      </trkpt>
      <trkpt lat="44.563750" lon="10.713504">
        <ele>358.4</ele>
      </trkpt>
      <trkpt lat="44.563761" lon="10.713506">
        <ele>358.4</ele>
      </trkpt>
      <trkpt lat="44.563780" lon="10.713502">
        <ele>358.5</ele>
      </trkpt>
      <trkpt lat="44.563805" lon="10.713493">
        <ele>358.7</ele>
      </trkpt>
      <trkpt lat="44.563834" lon="10.713490">
        <ele>358.9</ele>
      </trkpt>
      <trkpt lat="44.563841" lon="10.713490">
        <ele>358.9</ele>
      </trkpt>
      <trkpt lat="44.563856" lon="10.713486">
        <ele>359.1</ele>
      </trkpt>
      <trkpt lat="44.563874" lon="10.713476">
        <ele>359.4</ele>
      </trkpt>
      <trkpt lat="44.563890" lon="10.713471">
        <ele>358.6</ele>
      </trkpt>
      <trkpt lat="44.563905" lon="10.713468">
        <ele>358.9</ele>
      </trkpt>
      <trkpt lat="44.563939" lon="10.713467">
        <ele>359.1</ele>
      </trkpt>
      <trkpt lat="44.563947" lon="10.713466">
        <ele>359.1</ele>
      </trkpt>
      <trkpt lat="44.563961" lon="10.713462">
        <ele>359.2</ele>
      </trkpt>
      <trkpt lat="44.563975" lon="10.713458">
        <ele>359.4</ele>
      </trkpt>
      <trkpt lat="44.563987" lon="10.713450">
        <ele>359.4</ele>
      </trkpt>
      <trkpt lat="44.564006" lon="10.713441">
        <ele>359.6</ele>
      </trkpt>
      <trkpt lat="44.564020" lon="10.713434">
        <ele>359.7</ele>
      </trkpt>
      <trkpt lat="44.564032" lon="10.713426">
        <ele>359</ele>
      </trkpt>
      <trkpt lat="44.564043" lon="10.713421">
        <ele>359.1</ele>
      </trkpt>
      <trkpt lat="44.564055" lon="10.713418">
        <ele>359.1</ele>
      </trkpt>
      <trkpt lat="44.564064" lon="10.713416">
        <ele>359.3</ele>
      </trkpt>
      <trkpt lat="44.564084" lon="10.713417">
        <ele>359.3</ele>
      </trkpt>
      <trkpt lat="44.564093" lon="10.713420">
        <ele>359.5</ele>
      </trkpt>
      <trkpt lat="44.564102" lon="10.713422">
        <ele>359.5</ele>
      </trkpt>
      <trkpt lat="44.564124" lon="10.713422">
        <ele>359.8</ele>
      </trkpt>
      <trkpt lat="44.564134" lon="10.713420">
        <ele>359.8</ele>
      </trkpt>
      <trkpt lat="44.564143" lon="10.713418">
        <ele>359.8</ele>
      </trkpt>
      <trkpt lat="44.564157" lon="10.713415">
        <ele>360.1</ele>
      </trkpt>
      <trkpt lat="44.564168" lon="10.713409">
        <ele>360.1</ele>
      </trkpt>
      <trkpt lat="44.564185" lon="10.713397">
        <ele>360.3</ele>
      </trkpt>
      <trkpt lat="44.564196" lon="10.713392">
        <ele>360.3</ele>
      </trkpt>
      <trkpt lat="44.564208" lon="10.713393">
        <ele>360.4</ele>
      </trkpt>
      <trkpt lat="44.564221" lon="10.713393">
        <ele>360.6</ele>
      </trkpt>
      <trkpt lat="44.564236" lon="10.713387">
        <ele>360.6</ele>
      </trkpt>
      <trkpt lat="44.564248" lon="10.713379">
        <ele>360.1</ele>
      </trkpt>
      <trkpt lat="44.564267" lon="10.713370">
        <ele>360.1</ele>
      </trkpt>
      <trkpt lat="44.564281" lon="10.713368">
        <ele>360.3</ele>
      </trkpt>
      <trkpt lat="44.564297" lon="10.713371">
        <ele>360.3</ele>
      </trkpt>
      <trkpt lat="44.564309" lon="10.713373">
        <ele>360.5</ele>
      </trkpt>
      <trkpt lat="44.564338" lon="10.713380">
        <ele>360.7</ele>
      </trkpt>
      <trkpt lat="44.564346" lon="10.713381">
        <ele>361</ele>
      </trkpt>
      <trkpt lat="44.564366" lon="10.713387">
        <ele>361.6</ele>
      </trkpt>
      <trkpt lat="44.564374" lon="10.713391">
        <ele>361.8</ele>
      </trkpt>
      <trkpt lat="44.564382" lon="10.713395">
        <ele>362</ele>
      </trkpt>
      <trkpt lat="44.564395" lon="10.713403">
        <ele>362.3</ele>
      </trkpt>
      <trkpt lat="44.564403" lon="10.713412">
        <ele>362.5</ele>
      </trkpt>
      <trkpt lat="44.564409" lon="10.713426">
        <ele>362.7</ele>
      </trkpt>
      <trkpt lat="44.564415" lon="10.713441">
        <ele>363</ele>
      </trkpt>
      <trkpt lat="44.564422" lon="10.713450">
        <ele>363.1</ele>
      </trkpt>
      <trkpt lat="44.564430" lon="10.713457">
        <ele>363.3</ele>
      </trkpt>
      <trkpt lat="44.564441" lon="10.713469">
        <ele>363.5</ele>
      </trkpt>
      <trkpt lat="44.564442" lon="10.713477">
        <ele>363.6</ele>
      </trkpt>
      <trkpt lat="44.564444" lon="10.713487">
        <ele>363.7</ele>
      </trkpt>
      <trkpt lat="44.564446" lon="10.713498">
        <ele>363.8</ele>
      </trkpt>
      <trkpt lat="44.564450" lon="10.713510">
        <ele>363.9</ele>
      </trkpt>
      <trkpt lat="44.564456" lon="10.713527">
        <ele>364.1</ele>
      </trkpt>
      <trkpt lat="44.564459" lon="10.713541">
        <ele>364.2</ele>
      </trkpt>
      <trkpt lat="44.564460" lon="10.713557">
        <ele>364.3</ele>
      </trkpt>
      <trkpt lat="44.564463" lon="10.713573">
        <ele>364.5</ele>
      </trkpt>
      <trkpt lat="44.564467" lon="10.713587">
        <ele>365</ele>
      </trkpt>
      <trkpt lat="44.564469" lon="10.713598">
        <ele>365.2</ele>
      </trkpt>
      <trkpt lat="44.564473" lon="10.713613">
        <ele>365.5</ele>
      </trkpt>
      <trkpt lat="44.564480" lon="10.713638">
        <ele>366</ele>
      </trkpt>
      <trkpt lat="44.564483" lon="10.713653">
        <ele>366.2</ele>
      </trkpt>
      <trkpt lat="44.564486" lon="10.713669">
        <ele>366.5</ele>
      </trkpt>
      <trkpt lat="44.564487" lon="10.713684">
        <ele>366.8</ele>
      </trkpt>
      <trkpt lat="44.564493" lon="10.713715">
        <ele>367.3</ele>
      </trkpt>
      <trkpt lat="44.564495" lon="10.713726">
        <ele>367.5</ele>
      </trkpt>
      <trkpt lat="44.564497" lon="10.713737">
        <ele>367.6</ele>
      </trkpt>
      <trkpt lat="44.564507" lon="10.713764">
        <ele>368.1</ele>
      </trkpt>
      <trkpt lat="44.564510" lon="10.713774">
        <ele>368.3</ele>
      </trkpt>
      <trkpt lat="44.564513" lon="10.713785">
        <ele>368.4</ele>
      </trkpt>
      <trkpt lat="44.564524" lon="10.713814">
        <ele>368.9</ele>
      </trkpt>
      <trkpt lat="44.564528" lon="10.713823">
        <ele>369</ele>
      </trkpt>
      <trkpt lat="44.564532" lon="10.713832">
        <ele>369.2</ele>
      </trkpt>
      <trkpt lat="44.564539" lon="10.713851">
        <ele>369.4</ele>
      </trkpt>
      <trkpt lat="44.564545" lon="10.713870">
        <ele>369.7</ele>
      </trkpt>
      <trkpt lat="44.564548" lon="10.713894">
        <ele>370</ele>
      </trkpt>
      <trkpt lat="44.564551" lon="10.713916">
        <ele>370.2</ele>
      </trkpt>
      <trkpt lat="44.564557" lon="10.713937">
        <ele>370.5</ele>
      </trkpt>
      <trkpt lat="44.564565" lon="10.713956">
        <ele>370.7</ele>
      </trkpt>
      <trkpt lat="44.564568" lon="10.713974">
        <ele>370.9</ele>
      </trkpt>
      <trkpt lat="44.564569" lon="10.713997">
        <ele>371.2</ele>
      </trkpt>
      <trkpt lat="44.564579" lon="10.714042">
        <ele>371.4</ele>
      </trkpt>
    </trkseg>
  </trk>
</gpx>